start=new Date('2022-04-24T00:00:00.000Z').valueOf();
sats=[{"REF_FRAME":"TEME","TLE_LINE1":"1 50816U 22001P   22113.58334491  .00003353  00000-0  22865-3 0  9991","EPOCH":"2022-04-23T14:00:01.000224","MEAN_MOTION":"15.08838632","INCLINATION":"53.2191","TIME_SYSTEM":"UTC","ARG_OF_PERICENTER":"53.4234","MEAN_ANOMALY":"174.1096","MEAN_MOTION_DOT":"0.00003353","RCS_SIZE":"LARGE","PERIOD":"95.438","EPHEMERIS_TYPE":"0","PERIAPSIS":"538.422","FILE":"3412883","ELEMENT_SET_NO":"999","OBJECT_TYPE":"PAYLOAD","APOAPSIS":"541.077","COUNTRY_CODE":"US","OBJECT_NAME":"STARLINK-3342","MEAN_ELEMENT_THEORY":"SGP4","TLE_LINE2":"2 50816  53.2191  46.2733 0001919  53.4234 174.1096 15.08838632  3576","GP_ID":"201884037","ECCENTRICITY":"0.00019190","CENTER_NAME":"EARTH","SITE":"AFETR","DECAY_DATE":null,"RA_OF_ASC_NODE":"46.2733","CLASSIFICATION_TYPE":"U","BSTAR":"0.00022865000000","MEAN_MOTION_DDOT":"0.0000000000000","OBJECT_ID":"2022-001P","LAUNCH_DATE":"2022-01-06","NORAD_CAT_ID":"50816","REV_AT_EPOCH":"357","SEMIMAJOR_AXIS":"6917.885"},{"TLE_LINE2":"2 50817  53.2184  44.7577 0001859  54.2801  44.8208 15.08852483 17922","MEAN_ELEMENT_THEORY":"SGP4","OBJECT_NAME":"STARLINK-3341","COUNTRY_CODE":"US","APOAPSIS":"540.993","ECCENTRICITY":"0.00018590","GP_ID":"201891005","MEAN_MOTION_DDOT":"0.0000000000000","BSTAR":"-0.00243730000000","CLASSIFICATION_TYPE":"U","DECAY_DATE":null,"RA_OF_ASC_NODE":"44.7577","SITE":"AFETR","CENTER_NAME":"EARTH","SEMIMAJOR_AXIS":"6917.842","REV_AT_EPOCH":"1792","LAUNCH_DATE":"2022-01-06","NORAD_CAT_ID":"50817","OBJECT_ID":"2022-001Q","EPOCH":"2022-04-23T22:00:00.999936","TLE_LINE1":"1 50817U 22001Q   22113.91667824 -.00038883  00000-0 -24373-2 0  9991","REF_FRAME":"TEME","TIME_SYSTEM":"UTC","INCLINATION":"53.2184","MEAN_MOTION":"15.08852483","PERIOD":"95.437","RCS_SIZE":"LARGE","MEAN_ANOMALY":"44.8208","MEAN_MOTION_DOT":"-0.00038883","ARG_OF_PERICENTER":"54.2801","OBJECT_TYPE":"PAYLOAD","ELEMENT_SET_NO":"999","FILE":"3413147","PERIAPSIS":"538.421","EPHEMERIS_TYPE":"0"},{"SEMIMAJOR_AXIS":"6917.864","REV_AT_EPOCH":"1794","LAUNCH_DATE":"2022-01-06","NORAD_CAT_ID":"50818","OBJECT_ID":"2022-001R","MEAN_MOTION_DDOT":"0.0000000000000","BSTAR":"-0.00030557000000","CLASSIFICATION_TYPE":"U","RA_OF_ASC_NODE":"44.7744","DECAY_DATE":null,"SITE":"AFETR","CENTER_NAME":"EARTH","ECCENTRICITY":"0.00019000","GP_ID":"201891007","TLE_LINE2":"2 50818  53.2162  44.7744 0001900  47.2990 151.7975 15.08845228 17943","MEAN_ELEMENT_THEORY":"SGP4","OBJECT_NAME":"STARLINK-3336","COUNTRY_CODE":"US","APOAPSIS":"541.044","OBJECT_TYPE":"PAYLOAD","FILE":"3413147","ELEMENT_SET_NO":"999","PERIAPSIS":"538.415","EPHEMERIS_TYPE":"0","PERIOD":"95.437","RCS_SIZE":"LARGE","MEAN_MOTION_DOT":"-0.00005149","MEAN_ANOMALY":"151.7975","ARG_OF_PERICENTER":"47.2990","TIME_SYSTEM":"UTC","INCLINATION":"53.2162","MEAN_MOTION":"15.08845228","EPOCH":"2022-04-23T22:00:00.999936","TLE_LINE1":"1 50818U 22001R   22113.91667824 -.00005149  00000-0 -30557-3 0  9993","REF_FRAME":"TEME"},{"COUNTRY_CODE":"US","APOAPSIS":"540.879","MEAN_ELEMENT_THEORY":"SGP4","OBJECT_NAME":"STARLINK-3327","TLE_LINE2":"2 50819  53.2170  46.2505 0001492  58.2425  89.2971 15.08806889  3582","GP_ID":"201883787","ECCENTRICITY":"0.00014920","RA_OF_ASC_NODE":"46.2505","DECAY_DATE":null,"BSTAR":"0.00165440000000","CLASSIFICATION_TYPE":"U","MEAN_MOTION_DDOT":"0.0000000000000","CENTER_NAME":"EARTH","SITE":"AFETR","REV_AT_EPOCH":"358","SEMIMAJOR_AXIS":"6917.982","OBJECT_ID":"2022-001S","LAUNCH_DATE":"2022-01-06","NORAD_CAT_ID":"50819","EPOCH":"2022-04-23T14:00:01.000224","REF_FRAME":"TEME","TLE_LINE1":"1 50819U 22001S   22113.58334491  .00026116  00000-0  16544-2 0  9992","INCLINATION":"53.2170","TIME_SYSTEM":"UTC","MEAN_MOTION":"15.08806889","RCS_SIZE":"LARGE","PERIOD":"95.440","ARG_OF_PERICENTER":"58.2425","MEAN_MOTION_DOT":"0.00026116","MEAN_ANOMALY":"89.2971","ELEMENT_SET_NO":"999","FILE":"3412883","OBJECT_TYPE":"PAYLOAD","EPHEMERIS_TYPE":"0","PERIAPSIS":"538.814"},{"CENTER_NAME":"EARTH","SITE":"AFETR","RA_OF_ASC_NODE":"46.2729","DECAY_DATE":null,"BSTAR":"0.00006137900000","CLASSIFICATION_TYPE":"U","MEAN_MOTION_DDOT":"0.0000000000000","OBJECT_ID":"2022-001T","LAUNCH_DATE":"2022-01-06","NORAD_CAT_ID":"50820","REV_AT_EPOCH":"360","SEMIMAJOR_AXIS":"6917.887","APOAPSIS":"540.927","COUNTRY_CODE":"US","MEAN_ELEMENT_THEORY":"SGP4","OBJECT_NAME":"STARLINK-3339","TLE_LINE2":"2 50820  53.2189  46.2729 0001699  51.0002 196.5146 15.08837925  3607","GP_ID":"201883538","ECCENTRICITY":"0.00016990","ARG_OF_PERICENTER":"51.0002","MEAN_MOTION_DOT":"0.00000689","MEAN_ANOMALY":"196.5146","RCS_SIZE":"LARGE","PERIOD":"95.438","EPHEMERIS_TYPE":"0","PERIAPSIS":"538.576","ELEMENT_SET_NO":"999","FILE":"3412883","OBJECT_TYPE":"PAYLOAD","REF_FRAME":"TEME","TLE_LINE1":"1 50820U 22001T   22113.58334491  .00000689  00000-0  61379-4 0  9999","EPOCH":"2022-04-23T14:00:01.000224","MEAN_MOTION":"15.08837925","INCLINATION":"53.2189","TIME_SYSTEM":"UTC"},{"PERIAPSIS":"538.624","EPHEMERIS_TYPE":"0","OBJECT_TYPE":"PAYLOAD","ELEMENT_SET_NO":"999","FILE":"3412883","MEAN_ANOMALY":"280.3603","MEAN_MOTION_DOT":"-0.00006059","ARG_OF_PERICENTER":"47.2040","PERIOD":"95.439","RCS_SIZE":"LARGE","MEAN_MOTION":"15.08823213","TIME_SYSTEM":"UTC","INCLINATION":"53.2183","TLE_LINE1":"1 50821U 22001U   22113.58334491 -.00006059  00000-0 -36305-3 0  9999","REF_FRAME":"TEME","EPOCH":"2022-04-23T14:00:01.000224","NORAD_CAT_ID":"50821","LAUNCH_DATE":"2022-01-06","OBJECT_ID":"2022-001U","SEMIMAJOR_AXIS":"6917.932","REV_AT_EPOCH":"359","SITE":"AFETR","CENTER_NAME":"EARTH","MEAN_MOTION_DDOT":"0.0000000000000","BSTAR":"-0.00036305000000","CLASSIFICATION_TYPE":"U","DECAY_DATE":null,"RA_OF_ASC_NODE":"46.2709","ECCENTRICITY":"0.00016950","GP_ID":"201882787","TLE_LINE2":"2 50821  53.2183  46.2709 0001695  47.2040 280.3603 15.08823213  3598","OBJECT_NAME":"STARLINK-3346","MEAN_ELEMENT_THEORY":"SGP4","COUNTRY_CODE":"US","APOAPSIS":"540.969"},{"MEAN_MOTION":"15.08834300","TIME_SYSTEM":"UTC","INCLINATION":"53.2180","TLE_LINE1":"1 50822U 22001V   22113.58334491  .00001001  00000-0  81015-4 0  9999","REF_FRAME":"TEME","EPOCH":"2022-04-23T14:00:01.000224","EPHEMERIS_TYPE":"0","PERIAPSIS":"538.615","OBJECT_TYPE":"PAYLOAD","ELEMENT_SET_NO":"999","FILE":"3412524","MEAN_MOTION_DOT":"0.00001001","MEAN_ANOMALY":"233.3158","ARG_OF_PERICENTER":"54.2161","PERIOD":"95.438","RCS_SIZE":"LARGE","ECCENTRICITY":"0.00016590","GP_ID":"201850407","OBJECT_NAME":"STARLINK-3343","MEAN_ELEMENT_THEORY":"SGP4","TLE_LINE2":"2 50822  53.2180  46.2706 0001659  54.2161 233.3158 15.08834300 17873","APOAPSIS":"540.910","COUNTRY_CODE":"US","NORAD_CAT_ID":"50822","LAUNCH_DATE":"2022-01-06","OBJECT_ID":"2022-001V","SEMIMAJOR_AXIS":"6917.898","REV_AT_EPOCH":"1787","SITE":"AFETR","CENTER_NAME":"EARTH","MEAN_MOTION_DDOT":"0.0000000000000","DECAY_DATE":null,"RA_OF_ASC_NODE":"46.2706","BSTAR":"0.00008101500000","CLASSIFICATION_TYPE":"U"},{"REV_AT_EPOCH":"1795","SEMIMAJOR_AXIS":"6917.851","OBJECT_ID":"2022-001W","NORAD_CAT_ID":"50823","LAUNCH_DATE":"2022-01-06","RA_OF_ASC_NODE":"44.7562","DECAY_DATE":null,"BSTAR":"-0.00060443000000","CLASSIFICATION_TYPE":"U","MEAN_MOTION_DDOT":"0.0000000000000","CENTER_NAME":"EARTH","SITE":"AFETR","ECCENTRICITY":"0.00017810","GP_ID":"201891087","APOAPSIS":"540.948","COUNTRY_CODE":"US","OBJECT_NAME":"STARLINK-3334","MEAN_ELEMENT_THEORY":"SGP4","TLE_LINE2":"2 50823  53.2176  44.7562 0001781  44.0060  75.0960 15.08849486 17955","ELEMENT_SET_NO":"999","FILE":"3413152","OBJECT_TYPE":"PAYLOAD","EPHEMERIS_TYPE":"0","PERIAPSIS":"538.484","RCS_SIZE":"LARGE","PERIOD":"95.437","ARG_OF_PERICENTER":"44.0060","MEAN_ANOMALY":"75.0960","MEAN_MOTION_DOT":"-0.00009897","INCLINATION":"53.2176","TIME_SYSTEM":"UTC","MEAN_MOTION":"15.08849486","EPOCH":"2022-04-23T22:00:00.999936","REF_FRAME":"TEME","TLE_LINE1":"1 50823U 22001W   22113.91667824 -.00009897  00000-0 -60443-3 0  9990"},{"MEAN_ANOMALY":"268.1999","MEAN_MOTION_DOT":"-0.00006644","ARG_OF_PERICENTER":"50.9356","PERIOD":"95.437","RCS_SIZE":"LARGE","PERIAPSIS":"538.553","EPHEMERIS_TYPE":"0","OBJECT_TYPE":"PAYLOAD","FILE":"3413151","ELEMENT_SET_NO":"999","TLE_LINE1":"1 50824U 22001X   22113.91667824 -.00006644  00000-0 -39970-3 0  9999","REF_FRAME":"TEME","EPOCH":"2022-04-23T22:00:00.999936","MEAN_MOTION":"15.08843092","TIME_SYSTEM":"UTC","INCLINATION":"53.2178","SITE":"AFETR","CENTER_NAME":"EARTH","MEAN_MOTION_DDOT":"0.0000000000000","CLASSIFICATION_TYPE":"U","BSTAR":"-0.00039970000000","RA_OF_ASC_NODE":"44.7743","DECAY_DATE":null,"NORAD_CAT_ID":"50824","LAUNCH_DATE":"2022-01-06","OBJECT_ID":"2022-001X","SEMIMAJOR_AXIS":"6917.871","REV_AT_EPOCH":"1794","TLE_LINE2":"2 50824  53.2178  44.7743 0001710  50.9356 268.1999 15.08843092 17948","OBJECT_NAME":"STARLINK-3340","MEAN_ELEMENT_THEORY":"SGP4","APOAPSIS":"540.919","COUNTRY_CODE":"US","GP_ID":"201891069","ECCENTRICITY":"0.00017100"},{"PERIOD":"95.436","RCS_SIZE":"LARGE","MEAN_MOTION_DOT":"-0.00029983","MEAN_ANOMALY":"224.1695","ARG_OF_PERICENTER":"54.9426","OBJECT_TYPE":"PAYLOAD","FILE":"3413152","ELEMENT_SET_NO":"999","PERIAPSIS":"538.546","EPHEMERIS_TYPE":"0","EPOCH":"2022-04-23T22:00:00.999936","TLE_LINE1":"1 50825U 22001Y   22113.91667824 -.00029983  00000-0 -18725-2 0  9995","REF_FRAME":"TEME","TIME_SYSTEM":"UTC","INCLINATION":"53.2173","MEAN_MOTION":"15.08861141","MEAN_MOTION_DDOT":"0.0000000000000","CLASSIFICATION_TYPE":"U","BSTAR":"-0.00187250000000","DECAY_DATE":null,"RA_OF_ASC_NODE":"44.7760","SITE":"AFETR","CENTER_NAME":"EARTH","SEMIMAJOR_AXIS":"6917.816","REV_AT_EPOCH":"1794","LAUNCH_DATE":"2022-01-06","NORAD_CAT_ID":"50825","OBJECT_ID":"2022-001Y","TLE_LINE2":"2 50825  53.2173  44.7760 0001640  54.9426 224.1695 15.08861141 17947","MEAN_ELEMENT_THEORY":"SGP4","OBJECT_NAME":"STARLINK-3332","COUNTRY_CODE":"US","APOAPSIS":"540.815","ECCENTRICITY":"0.00016400","GP_ID":"201891085"}];
